{"fetched_at":"2026-05-31T10:16:23Z","count":9331,"tles":[{"name":"COSMOS 2251 DEB","line1":"1 38190U 93036BSE 23178.14636960  .00009910  00000+0  21075-2 0  9993","line2":"2 38190  74.0477 333.7416 0011563 225.6484 134.3735 14.59093636662923","category":"Other"},{"name":"SUPERBIRD-B3","line1":"1 43271U 18033A   26151.10561078 -.00000079  00000+0  00000+0 0  9990","line2":"2 43271   0.0165 335.1706 0001343 102.3694  11.0984  1.00276439 29895","category":"Other"},{"name":"STARLINK-34501","line1":"1 64429U 25129T   26150.60086621  .00000340  00000+0  36250-4 0  9993","line2":"2 64429  70.0015 228.0549 0003078 265.9419  94.1388 14.98329440 53559","category":"Starlink"},{"name":"STARLINK-1565","line1":"1 46037U 20055L   23362.39576734  .00000535  00000+0  54834-4 0  9992","line2":"2 46037  53.0545 128.2561 0001186  88.5110 271.6015 15.06391622187450","category":"Starlink"},{"name":"STARLINK-3073","line1":"1 49135U 21082F   26151.13703554  .00000597  00000+0  57862-4 0  9990","line2":"2 49135  70.0002  46.5606 0002752 265.6626  94.4218 14.98329422259322","category":"Starlink"},{"name":"CZ-6A DEB","line1":"1 60766U 24140ER  24249.28211035  .00018727  00000+0  44389-2 0  9993","line2":"2 60766  89.0723 347.9420 0108389 335.9630  23.6537 14.50365762  3472","category":"Other"},{"name":"SL-12 R/B(2)","line1":"1 22839U 93062D   26104.94234053 -.00000050  00000+0  00000+0 0  9991","line2":"2 22839  13.9830 347.3464 0008398  83.1318 108.1331  1.00285628118226","category":"Other"},{"name":"HULIANWANG DIGUI-153","line1":"1 67529U 26013H   26151.18515544 -.00000072  00000+0  11242-3 0  9991","line2":"2 67529  50.0050  56.3099 0000977  51.5017 308.5942 13.29328513 17786","category":"Other"},{"name":"KUIPER-00229","line1":"1 68578U 26072F   26150.53627987  .00002920  00000+0  44714-3 0  9997","line2":"2 68578  51.9018 273.3907 0002044 152.9687 207.1380 14.76372955  8513","category":"Other"},{"name":"STARLINK-11604 [DTC]","line1":"1 63133U 25043B   26151.19567060  .00220667  00000+0  16741-2 0  9992","line2":"2 63133  43.0002 113.8042 0001726 268.4393  91.6277 15.70895002 72320","category":"Starlink"},{"name":"STARLINK-37335","line1":"1 68785U 26086V   26151.16668980 -.00030498  00000+0 -56077-3 0  9998","line2":"2 68785  97.2853 188.1881 0001207  92.5300 111.7780 15.49214023  5904","category":"Starlink"},{"name":"IRIDIUM 33 DEB","line1":"1 39777U 97051AAJ 26103.75537448  .00006001  00000+0  12191-2 0  9992","line2":"2 39777  85.9574 115.6662 0061104 132.3906 228.2499 14.59800535619637","category":"Other"},{"name":"STARLINK-4549","line1":"1 53433U 22097AX  26151.09111292  .00001599  00000+0  11853-3 0  9992","line2":"2 53433  53.1946  94.1929 0001387  87.1526 272.9625 15.08836685211209","category":"Starlink"},{"name":"STARLINK-32277","line1":"1 60376U 24138X   26150.78003680  .00000223  00000+0  19658-4 0  9995","line2":"2 60376  53.1612 288.4650 0001618 114.6932 245.4237 15.30207974103196","category":"Starlink"},{"name":"QIANFAN-97","line1":"1 66039U 25233G   26151.19344475  .00000182  00000+0  26349-3 0  9998","line2":"2 66039  89.0021  44.9045 0002003  70.2683 289.8684 13.51008452 30897","category":"Other"},{"name":"CZ-7A R/B","line1":"1 60607U 24151B   24247.17828704  .00829450  16382-5  18628-2 0  9998","line2":"2 60607  14.6957 176.6447 7136648 176.6235 201.0779  2.53358494   181","category":"Other"},{"name":"AC1-002","line1":"1 66745U 25276CH  26151.15883375  .00003565  00000+0  17683-3 0  9991","line2":"2 66745  97.4203 224.8126 0003583  68.8861 291.2756 15.18355818 27822","category":"Other"},{"name":"FENGYUN 1C DEB","line1":"1 33623U 99025DDG 23173.24576033  .00006000  00000+0  31501-2 0  9995","line2":"2 33623  98.1806 339.0950 0082904  67.0057 293.9835 14.12694660795805","category":"Weather"},{"name":"TIANHUI 5B","line1":"1 58201U 23168C   26150.45324484  .00000640  00000+0  76485-4 0  9997","line2":"2 58201  97.8212 158.0822 0002131  97.4803 262.6656 14.87579270139962","category":"Other"},{"name":"STARLINK-34097","line1":"1 63903U 25095P   26151.17068935  .00030160  00000+0  11001-2 0  9990","line2":"2 63903  43.0054  70.2814 0001692 276.8274  83.2385 15.27609214 60399","category":"Starlink"},{"name":"UNKNOWN","line1":"1 82295U          23360.05523225  .00002140  00000+0  82487-3 0  9992","line2":"2 82295  66.6202 230.9814 0127439   5.6563 354.5936 14.27800208477137","category":"Other"},{"name":"GPS BIIA-14 (PRN 26)","line1":"1 22014C 92039A   08002.69761574 -.00000000  00000-0  00000-0 0 43637","line2":"2 22014  56.9118   1.8381 0183324  50.8237 151.3636  2.00575685    12","category":"GPS"},{"name":"IRIDIUM 157","line1":"1 43251U 18030C   26150.95337257  .00000011  00000+0 -30323-5 0  9990","line2":"2 43251  86.3944 297.6282 0002161  92.1622 267.9821 14.34217670427664","category":"Other"},{"name":"ONEWEB-0587","line1":"1 54654U 22166N   26150.80009972 -.00000084  00000+0 -23584-3 0  9998","line2":"2 54654  87.9266 247.4264 0001747 108.0938 252.0386 13.21827168169383","category":"Other"},{"name":"STARLINK-11387 [DTC]","line1":"1 62090U 24220C   26150.73121420  .00183895  00000+0  14041-2 0  9996","line2":"2 62090  43.0024 268.7813 0000936 296.2998  63.7774 15.70857991 87955","category":"Starlink"},{"name":"STARLINK-36782","line1":"1 67805U 26032J   26150.97788985  .00028658  00000+0  88633-3 0  9993","line2":"2 67805  97.2870 339.0230 0001368  51.5573 308.5792 15.33456822 17578","category":"Starlink"},{"name":"FENGYUN 1C DEB","line1":"1 36204U 99025DUD 26102.03961357  .00002241  00000+0  79474-3 0  9997","line2":"2 36204  99.2875 213.1785 0020338 170.8365 189.3193 14.35478709961536","category":"Weather"},{"name":"STARLINK-3642","line1":"1 51989U 22025AK  26151.17990375 -.00000295  00000+0 -45396-6 0  9999","line2":"2 51989  53.1957  28.7953 0000958 162.3516 197.7509 15.08829233233517","category":"Starlink"},{"name":"DRAGON CRS-30","line1":"1 59287U 24054A   24120.96661619  .00024915  00000+0  43122-3 0  9994","line2":"2 59287  51.6391 194.4959 0003387 121.9323  48.5079 15.50771109  6017","category":"Other"},{"name":"STARLINK-34776","line1":"1 65037U 25161Y   26150.76413010  .00031778  00000+0  10797-2 0  9993","line2":"2 65037  53.1589 273.1261 0001165 105.7896 254.3234 15.30223483 46795","category":"Starlink"},{"name":"FENGYUN 1C DEB","line1":"1 30068U 99025PV  26104.93336180  .00000191  00000+0  10777-3 0  9993","line2":"2 30068  98.7496  94.7691 0189960 358.6584   1.4055 14.12145133990828","category":"Weather"},{"name":"Q-SAT","line1":"1 46026U 20054B   24163.19113554  .09161396  25036-5  36744-3 0  9997","line2":"2 46026  97.3076 261.8656 0015593 264.5374  95.4148 16.42183694215586","category":"Other"},{"name":"NUSAT-38 (MARIA AGNESI)","line1":"1 56202U 23054AA  26151.17005412  .00039941  00000+0  74803-3 0  9994","line2":"2 56202  97.3082  61.3430 0014760 117.0748 243.2011 15.48460448175874","category":"Other"},{"name":"FENGYUN 1C DEB","line1":"1 31535U 99025BYA 26071.34348109  .00001814  00000+0  70870-3 0  9998","line2":"2 31535  98.0295 279.2227 0085842 256.6364 102.5238 14.28666986732102","category":"Weather"},{"name":"YAOGAN-31 04A","line1":"1 47854U 21020A   26151.21344027 -.00000013  00000+0  11878-3 0  9993","line2":"2 47854  63.4061 301.6110 0173474   0.4597 359.6557 13.45446784256181","category":"Other"},{"name":"STARLINK-32931","line1":"1 63199U 25048S   26150.95383071  .00016178  00000+0  59578-3 0  9996","line2":"2 63199  43.0002 340.7130 0001079 267.2180  92.8548 15.27598288 69679","category":"Starlink"},{"name":"STARLINK-37482","line1":"1 68850U 26094M   26151.01192257  .00060731  00000+0  11073-2 0  9990","line2":"2 68850  97.2823 165.6557 0002035 110.8852 249.2617 15.49250212  5412","category":"Starlink"},{"name":"STARLINK-4444","line1":"1 53507U 22099AU  23362.30346747  .00001303  00000+0  10599-3 0  9995","line2":"2 53507  97.6548 120.5930 0003684 234.4438 125.6443 15.01262850 75849","category":"Starlink"},{"name":"STARLINK-32195","line1":"1 60440U 24144R   26150.38294224 -.00000055  00000+0  95207-5 0  9995","line2":"2 60440  53.1606 196.4768 0001214  86.3049 273.8093 15.34383072101837","category":"Starlink"},{"name":"STARLINK-35622","line1":"1 66103U 25236T   26151.16668980  .00045470  00000+0  13863-2 0  9995","line2":"2 66103  53.1595  80.7879 0001344  90.6281 210.8922 15.33529693  5806","category":"Starlink"},{"name":"CZ-6A DEB","line1":"1 60683U 24140CL  24249.26884238  .00006518  00000+0  28423-2 0  9996","line2":"2 60683  89.0255 347.8688 0030140 165.8501 194.3543 14.23597375  3864","category":"Other"},{"name":"STARLINK-36045","line1":"1 66811U 25278W   26150.97969802  .00025320  00000+0  92584-3 0  9992","line2":"2 66811  43.0049   9.6890 0001536 257.8493 102.2186 15.27602183 27799","category":"Starlink"},{"name":"FENGYUN 1C DEB","line1":"1 33733U 99025DHW 26104.21460549  .00004480  00000+0  15869-2 0  9994","line2":"2 33733  99.0922 200.4746 0078983 173.2939 217.0872 14.33313446922017","category":"Weather"},{"name":"SHERPA-LTE1","line1":"1 48941U 21059BQ  24187.30636971  .24273288  27673-5  18518-3 0  9992","line2":"2 48941  97.5948  12.4804 0012306 257.1960 275.2988 16.52428567170310","category":"Other"},{"name":"PEARL 1H","line1":"1 58265U 23174K   23362.16745588  .00006508  00000+0  36177-3 0  9998","line2":"2 58265  97.4711  74.2244 0011911 122.8173 237.4208 15.13965413  7626","category":"Other"},{"name":"STARLINK-34153","line1":"1 63967U 25099R   26150.96937154  .00020810  00000+0  76337-3 0  9993","line2":"2 63967  43.0043  71.2212 0001606 267.5022  92.5646 15.27589675 59921","category":"Starlink"},{"name":"UNKNOWN","line1":"1 84192U          26085.94961519  .00004983  00000+0  13663-1 0  9992","line2":"2 84192   6.1026  57.5144 6956391 338.3085   2.7316  2.59776346112569","category":"Other"},{"name":"IABS R/B","line1":"1 22916U 93074B   26103.96538752 -.00000235  00000+0  00000+0 0  9999","line2":"2 22916  13.8334 342.5042 0060632 100.8810 259.7735  1.00005192 25260","category":"Other"}]}